NORAD_CAT_ID,OBJECT_NAME,OBJECT_TYPE,EPOCH,MEAN_MOTION,ECCENTRICITY,INCLINATION,RA_OF_ASC_NODE,ARG_OF_PERICENTER,MEAN_ANOMALY,BSTAR,MEAN_MOTION_DOT,MEAN_MOTION_DDOT,TLE_LINE0,TLE_LINE1,TLE_LINE2,SEMIMAJOR_AXIS,PERIOD,APOGEE,PERIGEE,DECAYED
53144.0,STARLINK-4100,PAYLOAD,2023-09-03 23:06:11,15.08820074,0.0001458,53.2171,333.9612,88.1653,271.9506,1.0516e-05,-1.21e-06,0.0,0 STARLINK-4100,1 53144U 22083N   23246.96262830 -.00000121  00000-0  10516-4 0  9997,2 53144  53.2171 333.9612 0001458  88.1653 271.9506 15.08820074 63301,6917.941,95.439,540.815,538.798,0.0
53144.0,STARLINK-4100,PAYLOAD,2023-09-04 11:49:16,15.0882198,0.0001354,53.2161,331.5825,87.5168,272.5979,0.00048315,7.406e-05,0.0,0 STARLINK-4100,1 53144U 22083N   23247.49255602  .00007406  00000-0  48315-3 0  9994,2 53144  53.2161 331.5825 0001354  87.5168 272.5979 15.08821980 62755,6917.935,95.439,540.737,538.864,0.0
53144.0,STARLINK-4100,PAYLOAD,2023-09-04 18:10:49,15.08829224,0.0001193,53.2162,330.3915,89.6256,270.4873,0.0005389,8.297e-05,0.0,0 STARLINK-4100,1 53144U 22083N   23247.75751660  .00008297  00000-0  53890-3 0  9991,2 53144  53.2162 330.3915 0001193  89.6256 270.4873 15.08829224 63429,6917.913,95.438,540.604,538.953,0.0
53144.0,STARLINK-4100,PAYLOAD,2023-09-05 05:18:31,15.08832178,0.000128,53.2163,328.3106,87.0628,273.051,0.00027926,4.158e-05,0.0,0 STARLINK-4100,1 53144U 22083N   23248.22119853  .00004158  00000-0  27926-3 0  9999,2 53144  53.2163 328.3106 0001280  87.0628 273.0510 15.08832178 62867,6917.904,95.438,540.655,538.884,0.0
53144.0,STARLINK-4100,PAYLOAD,2023-09-05 22:47:45,15.08851056,0.0001349,53.2162,325.0401,86.376,273.7386,0.00048023,7.365e-05,0.0,0 STARLINK-4100,1 53144U 22083N   23248.94983029  .00007365  00000-0  48023-3 0  9996,2 53144  53.2162 325.0401 0001349  86.3760 273.7386 15.08851056 63600,6917.847,95.437,540.645,538.778,0.0
53144.0,STARLINK-4100,PAYLOAD,2023-09-06 16:16:57,15.08879298,0.0001294,53.2162,321.7686,83.2412,276.8727,0.00060852,9.42e-05,0.0,0 STARLINK-4100,1 53144U 22083N   23249.67844873  .00009420  00000-0  60852-3 0  9998,2 53144  53.2162 321.7686 0001294  83.2412 276.8727 15.08879298 63710,6917.76,95.435,540.52,538.73,0.0
53144.0,STARLINK-4100,PAYLOAD,2023-09-07 08:10:50,15.0883461,0.0001344,53.2159,318.7926,112.8197,247.2937,-0.00036138,-6.034e-05,0.0,0 STARLINK-4100,1 53144U 22083N   23250.34085990 -.00006034  00000-0 -36138-3 0  9991,2 53144  53.2159 318.7926 0001344 112.8197 247.2937 15.08834610 63819,6917.897,95.438,540.692,538.832,0.0
53144.0,STARLINK-4100,PAYLOAD,2023-09-07 09:46:13,15.08832357,0.0001371,53.2162,318.4955,111.9073,248.2065,-0.00039003,-6.489e-05,0.0,0 STARLINK-4100,1 53144U 22083N   23250.40710063 -.00006489  00000-0 -39003-3 0  9992,2 53144  53.2162 318.4955 0001371 111.9073 248.2065 15.08832357 63195,6917.904,95.438,540.717,538.82,0.0
53144.0,STARLINK-4100,PAYLOAD,2023-09-07 14:32:23,15.08825083,0.0001441,53.2159,317.6028,103.3077,256.8076,-0.00045601,-7.535e-05,0.0,0 STARLINK-4100,1 53144U 22083N   23250.60582538 -.00007535  00000-0 -45601-3 0  9992,2 53144  53.2159 317.6028 0001441 103.3077 256.8076 15.08825083 63229,6917.926,95.438,540.788,538.794,0.0
53144.0,STARLINK-4100,PAYLOAD,2023-09-08 09:36:57,15.08895779,0.0001319,53.2164,314.037,77.2741,282.8399,-0.0018655,-0.000299,0.0,0 STARLINK-4100,1 53144U 22083N   23251.40066176 -.00029900  00000-0 -18655-2 0  9994,2 53144  53.2164 314.0370 0001319  77.2741 282.8399 15.08895779 63975,6917.71,95.434,540.487,538.662,0.0
53144.0,STARLINK-4100,PAYLOAD,2023-09-08 15:58:33,15.08839528,0.0001293,53.2161,312.8468,108.073,252.0403,0.00055413,8.542e-05,0.0,0 STARLINK-4100,1 53144U 22083N   23251.66566897  .00008542  00000-0  55413-3 0  9998,2 53144  53.2161 312.8468 0001293 108.0730 252.0403 15.08839528 64019,6917.882,95.438,540.641,538.852,0.0
53144.0,STARLINK-4100,PAYLOAD,2023-09-08 20:44:43,15.08849539,0.0001238,53.2156,311.9561,101.5742,258.5389,0.00069524,0.00010797,0.0,0 STARLINK-4100,1 53144U 22083N   23251.86438687  .00010797  00000-0  69524-3 0  9998,2 53144  53.2156 311.9561 0001238 101.5742 258.5389 15.08849539 63417,6917.851,95.437,540.573,538.86,0.0
53144.0,STARLINK-4100,PAYLOAD,2023-09-09 11:03:10,15.08879483,0.0001245,53.216,309.2794,96.5468,263.5665,0.0010367,0.00016267,0.0,0 STARLINK-4100,1 53144U 22083N   23252.46053491  .00016267  00000-0  10367-2 0  9999,2 53144  53.2160 309.2794 0001245  96.5468 263.5665 15.08879483 64130,6917.76,95.435,540.486,538.763,0.0
53144.0,STARLINK-4100,PAYLOAD,2023-09-09 12:38:33,15.08883738,0.0001251,53.216,308.982,96.4984,263.6151,0.001141,0.00017939,0.0,0 STARLINK-4100,1 53144U 22083N   23252.52677297  .00017939  00000-0  11410-2 0  9999,2 53144  53.2160 308.9820 0001251  96.4984 263.6151 15.08883738 63515,6917.747,95.435,540.477,538.746,0.0
53144.0,STARLINK-4100,PAYLOAD,2023-09-10 12:29:16,15.08912732,0.0001241,53.2156,304.5214,96.9337,263.1796,0.00092315,0.00014464,0.0,0 STARLINK-4100,1 53144U 22083N   23253.52033337  .00014464  00000-0  92315-3 0  9995,2 53144  53.2156 304.5214 0001241  96.9337 263.1796 15.08912732 63668,6917.658,95.433,540.382,538.665,0.0
53144.0,STARLINK-4100,PAYLOAD,2023-09-11 10:44:36,15.08931876,0.0001228,53.215,300.358,96.0445,264.0687,0.00074419,0.00011605,0.0,0 STARLINK-4100,1 53144U 22083N   23254.44764247  .00011605  00000-0  74419-3 0  9997,2 53144  53.2150 300.3580 0001228  96.0445 264.0687 15.08931876 63803,6917.6,95.432,540.314,538.615,0.0
53144.0,STARLINK-4100,PAYLOAD,2023-09-11 15:30:44,15.08936029,0.0001223,53.2148,299.4657,95.6992,264.4139,0.0007459,0.00011634,0.0,0 STARLINK-4100,1 53144U 22083N   23254.64635021  .00011634  00000-0  74590-3 0  9998,2 53144  53.2148 299.4657 0001223  95.6992 264.4139 15.08936029 64464,6917.587,95.431,540.298,538.606,0.0
53144.0,STARLINK-4100,PAYLOAD,2023-09-12 12:10:40,15.08955682,0.0001234,53.2147,295.5997,93.928,266.1853,0.00078729,0.00012304,0.0,0 STARLINK-4100,1 53144U 22083N   23255.50740945  .00012304  00000-0  78729-3 0  9999,2 53144  53.2147 295.5997 0001234  93.9280 266.1853 15.08955682 63962,6917.527,95.43,540.245,538.538,0.0
53144.0,STARLINK-4100,PAYLOAD,2023-09-13 08:50:34,15.08994294,0.0001277,53.2145,291.7336,90.9678,269.1461,0.0013761,0.00021773,0.0,0 STARLINK-4100,1 53144U 22083N   23256.36845180  .00021773  00000-0  13761-2 0  9995,2 53144  53.2145 291.7336 0001277  90.9678 269.1461 15.08994294 64725,6917.409,95.428,540.157,538.39,0.0
53144.0,STARLINK-4100,PAYLOAD,2023-09-13 10:25:56,15.08995775,0.0001277,53.2145,291.4361,91.0922,269.0216,0.0013125,0.00020751,0.0,0 STARLINK-4100,1 53144U 22083N   23256.43468493  .00020751  00000-0  13125-2 0  9990,2 53144  53.2145 291.4361 0001277  91.0922 269.0216 15.08995775 64108,6917.404,95.428,540.153,538.386,0.0
53144.0,STARLINK-4100,PAYLOAD,2023-09-13 19:58:11,15.09011665,0.0001289,53.2144,289.6515,90.3769,269.7371,0.0012502,0.00019759,0.0,0 STARLINK-4100,1 53144U 22083N   23256.83208095  .00019759  00000-0  12502-2 0  9998,2 53144  53.2144 289.6515 0001289  90.3769 269.7371 15.09011665 64164,6917.356,95.427,540.112,538.329,0.0
53144.0,STARLINK-4100,PAYLOAD,2023-09-14 08:41:11,15.09032409,0.0001348,53.2147,287.2726,84.5358,275.5788,0.0011477,0.00018121,0.0,0 STARLINK-4100,1 53144U 22083N   23257.36193619  .00018121  00000-0  11477-2 0  9994,2 53144  53.2147 287.2726 0001348  84.5358 275.5788 15.09032409 64245,6917.292,95.425,540.09,538.225,0.0
53144.0,STARLINK-4100,PAYLOAD,2023-09-15 02:10:17,15.09054486,0.0001348,53.2146,284.0003,87.272,272.8427,0.00097146,0.00015297,0.0,0 STARLINK-4100,1 53144U 22083N   23258.09047678  .00015297  00000-0  97146-3 0  9997,2 53144  53.2146 284.0003 0001348  87.2720 272.8427 15.09054486 64980,6917.225,95.424,540.022,538.157,0.0
53144.0,STARLINK-4100,PAYLOAD,2023-09-15 10:07:08,15.09063498,0.000133,53.2146,282.513,87.7,272.4144,0.00088509,0.00013912,0.0,0 STARLINK-4100,1 53144U 22083N   23258.42162790  .00013912  00000-0  88509-3 0  9992,2 53144  53.2146 282.5130 0001330  87.7000 272.4144 15.09063498 64403,6917.197,95.423,539.982,538.142,0.0
53144.0,STARLINK-4100,PAYLOAD,2023-09-16 02:00:52,15.09035784,0.0001114,53.215,279.5382,96.6308,263.4811,5.4621e-05,5.86e-06,0.0,0 STARLINK-4100,1 53144U 22083N   23259.08394636  .00000586  00000-0  54621-4 0  9993,2 53144  53.2150 279.5382 0001114  96.6308 263.4811 15.09035784 65132,6917.282,95.425,539.918,538.376,0.0
53144.0,STARLINK-4100,PAYLOAD,2023-09-16 08:22:26,15.08849783,0.0001406,53.2147,278.3491,75.955,284.1599,-0.0059829,-0.00094286,0.0,0 STARLINK-4100,1 53144U 22083N   23259.34891894 -.00094286  00000-0 -59829-2 0  9995,2 53144  53.2147 278.3491 0001406  75.9550 284.1599 15.08849783 65177,6917.85,95.437,540.688,538.743,0.0
53144.0,STARLINK-4100,PAYLOAD,2023-09-16 13:08:38,15.08711779,0.0001452,53.2148,277.4562,130.9122,229.1996,-0.009082,-0.00141504,0.0,0 STARLINK-4100,1 53144U 22083N   23259.54766631 -.00141504  00000-0 -90820-2 0  9999,2 53144  53.2148 277.4562 0001452 130.9122 229.1996 15.08711779 64571,6918.272,95.446,541.142,539.133,0.0
53144.0,STARLINK-4100,PAYLOAD,2023-09-16 17:54:54,15.084821,0.0001963,53.2146,276.5636,90.8277,269.294,-0.013823,-0.00211802,0.0,0 STARLINK-4100,1 53144U 22083N   23259.74646086 -.00211802  00000-0 -13823-1 0  9998,2 53144  53.2146 276.5636 0001963  90.8277 269.2940 15.08482100 65234,6918.975,95.46,542.198,539.481,0.0
53144.0,STARLINK-4100,PAYLOAD,2023-09-17 01:52:02,15.08251114,4.78e-05,53.2153,275.0755,147.1833,212.9189,-0.013253,-0.00202053,0.0,0 STARLINK-4100,1 53144U 22083N   23260.07780219 -.00202053  00000-0 -13253-1 0  9998,2 53144  53.2153 275.0755 0000478 147.1833 212.9189 15.08251114 65286,6919.681,95.475,541.877,541.215,0.0
53144.0,STARLINK-4100,PAYLOAD,2023-09-17 14:00:01,15.08243305,0.0001243,53.2147,272.8135,92.3294,133.8102,0.040254,0.00675166,0.0,0 STARLINK-4100,1 53144U 22083N   23260.58334491  .00675166  00000-0  40254-1 0  9999,2 53144  53.2147 272.8135 0001243  92.3294 133.8102 15.08243305 65356,6919.705,95.475,542.43,540.71,0.0
